STARLINK-6111
1 57102U 23090B   26092.83335647  .00003487  00000+0  22805-3 0  9998
2 57102  43.0008 143.6079 0002319 272.3556  84.2438 15.09352280  5837
